ONEWEB-0053             
1 45157U 20008AC  26164.07726972  .00000028  00000+0  43610-4 0  9998
2 45157  87.8837  37.1033 0002181  72.5230 287.6135 13.10375922307378
ONEWEB-0054             
1 45158U 20008AD  26164.18848908  .00000315  00000+0  86638-3 0  9990
2 45158  87.8842  37.0632 0001866  83.2518 276.8822 13.10369424307504
ONEWEB-0056             
1 45159U 20008AE  26164.08379612  .00000367  00000+0  10162-2 0  9996
2 45159  87.8845  37.0781 0001996  89.6472 270.4884 13.10377966307649
ONEWEB-0057             
1 45160U 20008AF  26164.17701541  .00000709  00000+0  19956-2 0  9998
2 45160  87.8837  37.0718 0002208  72.5951 287.5418 13.10371646307823
ONEWEB-0058             
1 45161U 20008AG  26164.08737613  .00000554  00000+0  15515-2 0  9993
2 45161  87.8833  37.0960 0001590  81.4982 278.6326 13.10374903307889
ONEWEB-0059             
1 45162U 20008AH  26164.08405459  .00000416  00000+0  11546-2 0  9991
2 45162  87.8835  37.0956 0001729  76.7415 283.3905 13.10376142307781
ONEWEB-0062             
1 45163U 20008AJ  26164.18337725  .00000573  00000+0  16038-2 0  9998
2 45163  87.8839  37.0626 0001439  91.1116 269.0176 13.10370507307664
ONEWEB-0065             
1 45164U 20008AK  26164.14019749 -.00000554  00000+0 -16246-2 0  9990
2 45164  87.8840  37.0792 0002144  80.2983 279.8387 13.10373927307354
ONEWEB-0066             
1 45424U 20020A   26164.10295137 -.00000494  00000+0 -14298-2 0  9994
2 45424  87.8891  21.8843 0001718  79.8169 280.3153 13.11417816302140
ONEWEB-0067             
1 45425U 20020B   26164.14087550  .00000476  00000+0  13076-2 0  9998
2 45425  87.8910  21.7977 0001963  81.9592 278.1759 13.11422833302205
ONEWEB-0080             
1 45426U 20020C   26164.14041052  .00000502  00000+0  13800-2 0  9991
2 45426  87.8900  21.8727 0001552  91.6496 268.4809 13.11416267302172
ONEWEB-0090             
1 45427U 20020D   26164.16921467 -.00000441  00000+0 -12801-2 0  9995
2 45427  87.8900  21.8713 0001765  87.0557 273.0773 13.11416056302146
ONEWEB-0061             
1 45428U 20020E   26164.12486905  .00000579  00000+0  15980-2 0  9996
2 45428  87.8898  21.8653 0001755  84.5134 275.6194 13.11418854302095
ONEWEB-0081             
1 45429U 20020F   26164.10634493 -.00000394  00000+0 -11482-2 0  9992
2 45429  87.8895  21.8794 0001847  78.2002 281.9333 13.11418643302209
ONEWEB-0069             
1 45430U 20020G   26164.10817466 -.00000289  00000+0 -84985-3 0  9999
2 45430  87.8897  21.8819 0001844  82.5504 277.5834 13.11418145302139
ONEWEB-0031             
1 45431U 20020H   26164.14366143  .00000386  00000+0  10530-2 0  9995
2 45431  87.8886  21.8800 0001667  89.5055 270.6264 13.11416010302128
ONEWEB-0027             
1 45432U 20020J   26164.08381054  .00036918  00000+0  96251-1 0  9990
2 45432  87.9150   6.6799 0002444  98.3306 261.8102 13.16521693305814
ONEWEB-0064             
1 45433U 20020K   26164.14196742  .00000420  00000+0  11501-2 0  9991
2 45433  87.8890  21.8720 0001764  90.5531 269.5799 13.11414683302152
ONEWEB-0018             
1 45434U 20020L   26164.09774336 -.00001522  00000+0 -43275-2 0  9996
2 45434  87.8887  21.8767 0000977  71.3612 288.7622 13.11456550302092
ONEWEB-0083             
1 45435U 20020M   26164.08784274 -.00000374  00000+0 -10897-2 0  9996
2 45435  87.8897  21.8754 0001735  85.9117 274.2209 13.11416203302131
ONEWEB-0095             
1 45436U 20020N   26164.07938240 -.00000140  00000+0 -43069-3 0  9999
2 45436  87.8897  21.8858 0002421  95.5283 264.6121 13.11419535302138
ONEWEB-0092             
1 45437U 20020P   26164.03354305 -.00033658  00000+0 -95059-1 0  9994
2 45437  87.8899  21.8871 0002157  88.6547 271.4828 13.11627414302247
ONEWEB-0085             
1 45438U 20020Q   26164.08756201 -.00000506  00000+0 -14626-2 0  9999
2 45438  87.8891  21.8827 0001805  85.4757 274.6577 13.11416102302132
ONEWEB-0096             
1 45439U 20020R   26164.16570376 -.00000404  00000+0 -11759-2 0  9997
2 45439  87.8899  21.8629 0001866  87.7338 272.4004 13.11422228302135
ONEWEB-0037             
1 45440U 20020S   26164.12424080  .00000466  00000+0  12710-2 0  9999
2 45440  87.8909  21.8449 0001895  85.5363 274.5982 13.11913486302167
ONEWEB-0042             
1 45441U 20020T   26164.07909050 -.00000228  00000+0 -67977-3 0  9993
2 45441  87.8895  21.8763 0001841  81.7811 278.3526 13.11413128302128
ONEWEB-0098             
1 45442U 20020U   26164.07499274  .00000035  00000+0  61904-4 0  9995
2 45442  87.8894  21.8866 0001727  86.2249 273.9077 13.11415063302100
ONEWEB-0055             
1 45443U 20020V   26164.12997827  .00000621  00000+0  17172-2 0  9996
2 45443  87.8897  21.8745 0001745  86.2431 273.8897 13.11417535302085
ONEWEB-0093             
1 45444U 20020W   26164.10987600 -.00000412  00000+0 -11979-2 0  9992
2 45444  87.8897  21.8715 0002006  73.8776 286.2573 13.11418242302140
ONEWEB-0029             
1 45445U 20020X   26164.13701547  .00000277  00000+0  74626-3 0  9996
2 45445  87.8885  21.8752 0001762  77.4033 282.7292 13.11420390302127
