OBJECT_NAME,OBJECT_ID,EPOCH,MEAN_MOTION,ECCENTRICITY,INCLINATION,RA_OF_ASC_NODE,ARG_OF_PERICENTER,MEAN_ANOMALY,EPHEMERIS_TYPE,CLASSIFICATION_TYPE,NORAD_CAT_ID,ELEMENT_SET_NO,REV_AT_EPOCH,BSTAR,MEAN_MOTION_DOT,MEAN_MOTION_DDOT
ONEWEB-0053,2020-008AC,2026-06-13T01:51:16.103808,13.10375922,.00021817,87.8837,37.1033,72.5230,287.6135,0,U,45157,999,30737,.43609698E-4,.28E-6,0
ONEWEB-0054,2020-008AD,2026-06-13T04:31:25.456512,13.10369424,.00018669,87.8842,37.0632,83.2518,276.8822,0,U,45158,999,30750,.8663809E-3,.315E-5,0
ONEWEB-0056,2020-008AE,2026-06-13T02:00:39.984768,13.10377966,.00019961,87.8845,37.0781,89.6472,270.4884,0,U,45159,999,30764,.10162204E-2,.367E-5,0
ONEWEB-0057,2020-008AF,2026-06-13T04:14:54.131424,13.10371646,.00022087,87.8837,37.0718,72.5951,287.5418,0,U,45160,999,30782,.19955728E-2,.709E-5,0
ONEWEB-0058,2020-008AG,2026-06-13T02:05:49.297632,13.10374903,.00015907,87.8833,37.0960,81.4982,278.6326,0,U,45161,999,30788,.15514742E-2,.554E-5,0
ONEWEB-0059,2020-008AH,2026-06-13T02:01:02.316576,13.10376142,.00017299,87.8835,37.0956,76.7415,283.3905,0,U,45162,999,30778,.11546335E-2,.416E-5,0
ONEWEB-0062,2020-008AJ,2026-06-13T04:24:03.794400,13.10370507,.0001439,87.8839,37.0626,91.1116,269.0176,0,U,45163,999,30766,.16038074E-2,.573E-5,0
ONEWEB-0065,2020-008AK,2026-06-13T03:21:53.063136,13.10373927,.00021444,87.8840,37.0792,80.2983,279.8387,0,U,45164,999,30735,-.16246166E-2,-.554E-5,0
ONEWEB-0066,2020-020A,2026-06-13T02:28:14.998368,13.11417816,.00017189,87.8891,21.8843,79.8169,280.3153,0,U,45424,999,30214,-.14298174E-2,-.494E-5,0
ONEWEB-0067,2020-020B,2026-06-13T03:22:51.643200,13.11422833,.0001963,87.8910,21.7977,81.9592,278.1759,0,U,45425,999,30220,.13076465E-2,.476E-5,0
ONEWEB-0080,2020-020C,2026-06-13T03:22:11.468928,13.11416267,.00015521,87.8900,21.8727,91.6496,268.4809,0,U,45426,999,30217,.13800386E-2,.502E-5,0
ONEWEB-0090,2020-020D,2026-06-13T04:03:40.147488,13.11416056,.00017655,87.8900,21.8713,87.0557,273.0773,0,U,45427,999,30214,-.12801124E-2,-.441E-5,0
ONEWEB-0061,2020-020E,2026-06-13T02:59:48.685920,13.11418854,.0001755,87.8898,21.8653,84.5134,275.6194,0,U,45428,999,30209,.15979544E-2,.579E-5,0
ONEWEB-0081,2020-020F,2026-06-13T02:33:08.201952,13.11418643,.00018472,87.8895,21.8794,78.2002,281.9333,0,U,45429,999,30220,-.11482316E-2,-.394E-5,0
ONEWEB-0069,2020-020G,2026-06-13T02:35:46.290624,13.11418145,.00018449,87.8897,21.8819,82.5504,277.5834,0,U,45430,999,30213,-.84985035E-3,-.289E-5,0
ONEWEB-0031,2020-020H,2026-06-13T03:26:52.347552,13.11416010,.00016675,87.8886,21.8800,89.5055,270.6264,0,U,45431,999,30212,.1053003E-2,.386E-5,0
ONEWEB-0027,2020-020J,2026-06-13T02:00:41.230656,13.16521693,.00024447,87.9150,6.6799,98.3306,261.8102,0,U,45432,999,30581,.96250956E-1,.36918E-3,0
ONEWEB-0064,2020-020K,2026-06-13T03:24:25.985088,13.11414683,.0001764,87.8890,21.8720,90.5531,269.5799,0,U,45433,999,30215,.11500851E-2,.42E-5,0
ONEWEB-0018,2020-020L,2026-06-13T02:20:45.026304,13.11456550,.00009771,87.8887,21.8767,71.3612,288.7622,0,U,45434,999,30209,-.43275071E-2,-.1522E-4,0
ONEWEB-0083,2020-020M,2026-06-13T02:06:29.612736,13.11416203,.00017353,87.8897,21.8754,85.9117,274.2209,0,U,45435,999,30213,-.10897377E-2,-.374E-5,0
ONEWEB-0095,2020-020N,2026-06-13T01:54:18.639360,13.11419535,.00024214,87.8897,21.8858,95.5283,264.6121,0,U,45436,999,30213,-.43068776E-3,-.14E-5,0
ONEWEB-0092,2020-020P,2026-06-13T00:48:18.119520,13.11627414,.00021573,87.8899,21.8871,88.6547,271.4828,0,U,45437,999,30224,-.95059301E-1,-.33658E-3,0
ONEWEB-0085,2020-020Q,2026-06-13T02:06:05.357664,13.11416102,.00018052,87.8891,21.8827,85.4757,274.6577,0,U,45438,999,30213,-.14626036E-2,-.506E-5,0
ONEWEB-0096,2020-020R,2026-06-13T03:58:36.804864,13.11422228,.00018666,87.8899,21.8629,87.7338,272.4004,0,U,45439,999,30213,-.11759232E-2,-.404E-5,0
ONEWEB-0037,2020-020S,2026-06-13T02:58:54.405120,13.11913486,.00018952,87.8909,21.8449,85.5363,274.5982,0,U,45440,999,30216,.12709591E-2,.466E-5,0
ONEWEB-0042,2020-020T,2026-06-13T01:53:53.419200,13.11413128,.00018412,87.8895,21.8763,81.7811,278.3526,0,U,45441,999,30212,-.67976969E-3,-.228E-5,0
ONEWEB-0098,2020-020U,2026-06-13T01:47:59.372736,13.11415063,.00017273,87.8894,21.8866,86.2249,273.9077,0,U,45442,999,30210,.61903965E-4,.35E-6,0
ONEWEB-0055,2020-020V,2026-06-13T03:07:10.122528,13.11417535,.00017452,87.8897,21.8745,86.2431,273.8897,0,U,45443,999,30208,.17172294E-2,.621E-5,0
ONEWEB-0093,2020-020W,2026-06-13T02:38:13.286400,13.11418242,.00020064,87.8897,21.8715,73.8776,286.2573,0,U,45444,999,30214,-.11979439E-2,-.412E-5,0
ONEWEB-0029,2020-020X,2026-06-13T03:17:18.136608,13.11420390,.00017629,87.8885,21.8752,77.4033,282.7292,0,U,45445,999,30212,.74626158E-3,.277E-5,0
